NORAD_CAT_ID,OBJECT_NAME,OBJECT_TYPE,EPOCH,MEAN_MOTION,ECCENTRICITY,INCLINATION,RA_OF_ASC_NODE,ARG_OF_PERICENTER,MEAN_ANOMALY,BSTAR,MEAN_MOTION_DOT,MEAN_MOTION_DDOT,TLE_LINE0,TLE_LINE1,TLE_LINE2,SEMIMAJOR_AXIS,PERIOD,APOGEE,PERIGEE,DECAYED
56804.0,STARLINK-6069,PAYLOAD,2023-09-09 00:55:03,15.7034233,0.0005194,69.9994,129.9903,278.6313,81.4294,0.00083726,0.00103531,0.0,0 STARLINK-6069,1 56804U 23078AP  23252.03823593  .00103531  00000-0  83726-3 0  9992,2 56804  69.9994 129.9903 0005194 278.6313  81.4294 15.70342330 16129,6736.055,91.7,361.419,354.421,0.0
56804.0,STARLINK-6069,PAYLOAD,2023-09-10 01:23:21,15.69934354,0.0003621,69.9986,127.1251,276.5459,83.5324,-1.7241e-05,-2.286e-05,0.0,0 STARLINK-6069,1 56804U 23078AP  23253.05789089 -.00002286  00000-0 -17241-4 0  9993,2 56804  69.9986 127.1251 0003621 276.5459  83.5324 15.69934354 16282,6737.222,91.724,361.526,356.647,0.0
56804.0,STARLINK-6069,PAYLOAD,2023-09-10 04:26:52,15.69933033,0.0003776,69.9992,126.7662,275.8759,84.2006,2.0333e-05,2.234e-05,0.0,0 STARLINK-6069,1 56804U 23078AP  23253.18532411  .00002234  00000-0  20333-4 0  9999,2 56804  69.9992 126.7662 0003776 275.8759  84.2006 15.69933033 16712,6737.226,91.724,361.635,356.547,0.0
56804.0,STARLINK-6069,PAYLOAD,2023-09-10 18:12:38,15.69928637,0.0003985,70.0004,125.1564,277.0933,82.9809,2.2626e-06,5.9e-07,0.0,0 STARLINK-6069,1 56804U 23078AP  23253.75878042  .00000059  00000-0  22626-5 0  9996,2 56804  70.0004 125.1564 0003985 277.0933  82.9809 15.69928637 16397,6737.238,91.724,361.788,356.418,0.0
56804.0,STARLINK-6069,PAYLOAD,2023-09-11 01:51:23,15.69936212,0.0003825,69.9992,124.2584,275.3646,84.7113,1.7415e-05,1.883e-05,0.0,0 STARLINK-6069,1 56804U 23078AP  23254.07735941  .00001883  00000-0  17415-4 0  9997,2 56804  69.9992 124.2584 0003825 275.3646  84.7113 15.69936212 16449,6737.216,91.723,361.658,356.505,0.0
56804.0,STARLINK-6069,PAYLOAD,2023-09-11 17:08:55,15.69929556,0.000335,69.9979,122.4651,257.8478,102.2343,1.4522e-05,1.534e-05,0.0,0 STARLINK-6069,1 56804U 23078AP  23254.71453129  .00001534  00000-0  14522-4 0  9992,2 56804  69.9979 122.4651 0003350 257.8478 102.2343 15.69929556 16545,6737.236,91.724,361.358,356.844,0.0
56804.0,STARLINK-6069,PAYLOAD,2023-09-12 00:47:41,15.69923882,0.0003518,69.9981,121.57,267.9661,92.1131,3.9912e-06,2.67e-06,0.0,0 STARLINK-6069,1 56804U 23078AP  23255.03311812  .00000267  00000-0  39912-5 0  9993,2 56804  69.9981 121.5700 0003518 267.9661  92.1131 15.69923882 16598,6737.252,91.724,361.487,356.747,0.0
56804.0,STARLINK-6069,PAYLOAD,2023-09-12 17:36:57,15.69929339,0.0003207,69.9978,119.6,259.9109,100.1725,1.2533e-05,1.295e-05,0.0,0 STARLINK-6069,1 56804U 23078AP  23255.73400039  .00001295  00000-0  12533-4 0  9991,2 56804  69.9978 119.6000 0003207 259.9109 100.1725 15.69929339 17119,6737.236,91.724,361.262,356.941,0.0
56804.0,STARLINK-6069,PAYLOAD,2023-09-13 01:15:42,15.69937318,0.0003206,69.9966,118.7023,259.9516,100.1318,1.1008e-05,1.112e-05,0.0,0 STARLINK-6069,1 56804U 23078AP  23256.05257716  .00001112  00000-0  11008-4 0  9993,2 56804  69.9966 118.7023 0003206 259.9516 100.1318 15.69937318 16755,6737.213,91.723,361.238,356.918,0.0
56804.0,STARLINK-6069,PAYLOAD,2023-09-13 18:04:59,15.69916203,0.000287,69.9975,116.7324,252.8095,107.2787,1.9746e-05,2.161e-05,0.0,0 STARLINK-6069,1 56804U 23078AP  23256.75347209  .00002161  00000-0  19746-4 0  9999,2 56804  69.9975 116.7324 0002870 252.8095 107.2787 15.69916203 16867,6737.274,91.725,361.072,357.205,0.0
56804.0,STARLINK-6069,PAYLOAD,2023-09-13 21:08:32,15.69895499,0.0003601,69.9968,116.375,270.6081,89.4702,-1.7624e-05,-2.329e-05,0.0,0 STARLINK-6069,1 56804U 23078AP  23256.88092675 -.00002329  00000-0 -17624-4 0  9998,2 56804  69.9968 116.3750 0003601 270.6081  89.4702 15.69895499 17293,6737.333,91.726,361.624,356.772,0.0
56804.0,STARLINK-6069,PAYLOAD,2023-09-14 01:43:46,15.69911197,0.0003479,69.9965,115.8361,268.5948,91.4849,-1.2087e-07,-2.27e-06,0.0,0 STARLINK-6069,1 56804U 23078AP  23257.07206669 -.00000227  00000-0 -12087-6 0  9995,2 56804  69.9965 115.8361 0003479 268.5948  91.4849 15.69911197 16910,6737.288,91.725,361.497,356.809,0.0
56804.0,STARLINK-6069,PAYLOAD,2023-09-14 13:57:46,15.69935424,0.0003735,69.9973,114.404,265.4294,94.6475,9.9925e-06,9.89e-06,0.0,0 STARLINK-6069,1 56804U 23078AP  23257.58178312  .00000989  00000-0  99925-5 0  9992,2 56804  69.9973 114.4040 0003735 265.4294  94.6475 15.69935424 17407,6737.219,91.724,361.6,356.567,0.0
56804.0,STARLINK-6069,PAYLOAD,2023-09-14 17:01:17,15.69912541,0.0003196,69.9973,114.0448,267.1743,92.9086,-1.1589e-05,-1.605e-05,0.0,0 STARLINK-6069,1 56804U 23078AP  23257.70923340 -.00001605  00000-0 -11589-4 0  9992,2 56804  69.9973 114.0448 0003196 267.1743  92.9086 15.69912541 17420,6737.284,91.725,361.302,356.996,0.0
56804.0,STARLINK-6069,PAYLOAD,2023-09-15 00:40:03,15.69916644,0.0003334,69.9967,113.1488,263.8704,96.2112,-1.214e-05,-1.672e-05,0.0,0 STARLINK-6069,1 56804U 23078AP  23258.02781544 -.00001672  00000-0 -12140-4 0  9994,2 56804  69.9967 113.1488 0003334 263.8704  96.2112 15.69916644 17066,6737.272,91.725,361.384,356.891,0.0
56804.0,STARLINK-6069,PAYLOAD,2023-09-15 23:36:20,15.69900012,0.0003412,69.9975,110.4617,268.1702,91.9103,3.2693e-05,3.716e-05,0.0,0 STARLINK-6069,1 56804U 23078AP  23258.98356823  .00003716  00000-0  32693-4 0  9991,2 56804  69.9975 110.4617 0003412 268.1702  91.9103 15.69900012 17628,6737.32,91.726,361.484,356.886,0.0
56804.0,STARLINK-6069,PAYLOAD,2023-09-16 16:25:35,15.69948316,0.0003603,69.9986,108.4892,262.8699,97.2087,-2.6493e-05,-3.401e-05,0.0,0 STARLINK-6069,1 56804U 23078AP  23259.68443417 -.00003401  00000-0 -26493-4 0  9999,2 56804  69.9986 108.4892 0003603 262.8699  97.2087 15.69948316 17326,6737.182,91.723,361.474,356.619,0.0
56804.0,STARLINK-6069,PAYLOAD,2023-09-17 00:04:21,15.69925517,0.0003135,69.9995,107.5935,262.6361,97.4478,-3.6783e-06,-6.55e-06,0.0,0 STARLINK-6069,1 56804U 23078AP  23260.00302595 -.00000655  00000-0 -36783-5 0  9990,2 56804  69.9995 107.5935 0003135 262.6361  97.4478 15.69925517 17377,6737.247,91.724,361.224,357.0,0.0
56804.0,STARLINK-6069,PAYLOAD,2023-09-18 14:18:09,15.69932872,0.0003712,69.9962,103.1165,273.0032,87.0739,-4.7932e-06,-7.9e-06,0.0,0 STARLINK-6069,1 56804U 23078AP  23261.59593910 -.00000790  00000-0 -47932-5 0  9996,2 56804  69.9962 103.1165 0003712 273.0032  87.0739 15.69932872 18031,6737.226,91.724,361.592,356.59,0.0
56804.0,STARLINK-6069,PAYLOAD,2023-09-18 17:21:39,15.69930974,0.0003766,69.9963,102.7577,273.1841,86.8923,-5.0739e-06,-8.23e-06,0.0,0 STARLINK-6069,1 56804U 23078AP  23261.72337310 -.00000823  00000-0 -50739-5 0  9997,2 56804  69.9963 102.7577 0003766 273.1841  86.8923 15.69930974 17641,6737.231,91.724,361.634,356.559,0.0
56804.0,STARLINK-6069,PAYLOAD,2023-09-18 20:25:09,15.69926282,0.0003664,69.9972,102.4009,264.2011,95.8767,-8.5655e-06,-1.243e-05,0.0,0 STARLINK-6069,1 56804U 23078AP  23261.85081010 -.00001243  00000-0 -85655-5 0  9996,2 56804  69.9972 102.4009 0003664 264.2011  95.8767 15.69926282 18076,6737.245,91.724,361.578,356.641,0.0
56804.0,STARLINK-6069,PAYLOAD,2023-09-19 19:21:28,15.69896168,0.0003461,69.9964,99.7122,270.5327,89.5472,-1.6416e-05,-2.184e-05,0.0,0 STARLINK-6069,1 56804U 23078AP  23262.80657967 -.00002184  00000-0 -16416-4 0  9995,2 56804  69.9964  99.7122 0003461 270.5327  89.5472 15.69896168 17819,6737.331,91.726,361.528,356.864,0.0
56804.0,STARLINK-6069,PAYLOAD,2023-09-19 23:56:43,15.69902133,0.0003023,69.998,99.1749,267.3979,92.687,-5.9092e-06,-9.22e-06,0.0,0 STARLINK-6069,1 56804U 23078AP  23262.99772718 -.00000922  00000-0 -59092-5 0  9993,2 56804  69.9980  99.1749 0003023 267.3979  92.6870 15.69902133 17847,6737.314,91.725,361.216,357.142,0.0
56804.0,STARLINK-6069,PAYLOAD,2023-09-20 13:42:28,15.69920635,0.000346,69.9972,97.5636,272.2167,87.8632,1.4275e-05,1.504e-05,0.0,0 STARLINK-6069,1 56804U 23078AP  23263.57116274  .00001504  00000-0  14275-4 0  9995,2 56804  69.9972  97.5636 0003460 272.2167  87.8632 15.69920635 18349,6737.261,91.724,361.457,356.795,0.0
56804.0,STARLINK-6069,PAYLOAD,2023-09-20 16:45:59,15.69909601,0.0004069,69.9972,97.2055,280.8858,79.188,1.3551e-06,-5e-07,0.0,0 STARLINK-6069,1 56804U 23078AP  23263.69860627 -.00000050  00000-0  13551-5 0  9999,2 56804  69.9972  97.2055 0004069 280.8858  79.1880 15.69909601 17954,6737.293,91.725,361.899,356.416,0.0
56804.0,STARLINK-6069,PAYLOAD,2023-09-20 21:21:14,15.69909522,0.0003315,69.9989,96.6676,273.5368,86.5449,9.113e-06,8.83e-06,0.0,0 STARLINK-6069,1 56804U 23078AP  23263.88975634  .00000883  00000-0  91130-5 0  9997,2 56804  69.9989  96.6676 0003315 273.5368  86.5449 15.69909522 18396,6737.293,91.725,361.391,356.924,0.0
56804.0,STARLINK-6069,PAYLOAD,2023-09-20 22:53:00,15.69897732,0.0003168,69.9982,96.4879,270.0015,90.0818,-8.4405e-06,-1.226e-05,0.0,0 STARLINK-6069,1 56804U 23078AP  23263.95348303 -.00001226  00000-0 -84405-5 0  9993,2 56804  69.9982  96.4879 0003168 270.0015  90.0818 15.69897732 17993,6737.327,91.726,361.326,357.057,0.0
56804.0,STARLINK-6069,PAYLOAD,2023-09-21 12:38:45,15.69920849,0.0003469,69.9988,94.8758,267.4862,92.5936,1.9217e-05,2.098e-05,0.0,0 STARLINK-6069,1 56804U 23078AP  23264.52691240  .00002098  00000-0  19217-4 0  9992,2 56804  69.9988  94.8758 0003469 267.4862  92.5936 15.69920849 18491,6737.26,91.724,361.463,356.788,0.0
56804.0,STARLINK-6069,PAYLOAD,2023-09-21 15:42:15,15.69926573,0.0003064,69.9994,94.518,262.1199,97.9649,2.167e-05,2.394e-05,0.0,0 STARLINK-6069,1 56804U 23078AP  23264.65434241  .00002394  00000-0  21670-4 0  9997,2 56804  69.9994  94.5180 0003064 262.1199  97.9649 15.69926573 18108,6737.244,91.724,361.173,357.045,0.0
56804.0,STARLINK-6069,PAYLOAD,2023-09-21 21:49:16,15.69919306,0.0002969,69.9989,93.8014,266.1889,93.8967,1.3554e-05,1.417e-05,0.0,0 STARLINK-6069,1 56804U 23078AP  23264.90921674  .00001417  00000-0  13554-4 0  9993,2 56804  69.9989  93.8014 0002969 266.1889  93.8967 15.69919306 18556,6737.265,91.724,361.13,357.13,0.0
